start=new Date('2023-01-25T00:00:00.000Z').valueOf();
sats=[{"EPOCH":"2023-01-24T16:48:50.792832","FILE":"3760114","OBJECT_TYPE":"PAYLOAD","MEAN_MOTION_DDOT":"0.0000000000000","CENTER_NAME":"EARTH","ARG_OF_PERICENTER":"90.7283","MEAN_ELEMENT_THEORY":"SGP4","PERIOD":"95.592","SITE":"AFETR","INCLINATION":"53.0568","EPHEMERIS_TYPE":"0","GP_ID":"223641022","ELEMENT_SET_NO":"999","MEAN_ANOMALY":"269.3896","NORAD_CAT_ID":"47152","SEMIMAJOR_AXIS":"6925.341","RA_OF_ASC_NODE":"19.2174","COUNTRY_CODE":"US","OBJECT_NAME":"STARLINK-1866","ECCENTRICITY":"0.00016520","MEAN_MOTION":"15.06402348","REV_AT_EPOCH":"12026","LAUNCH_DATE":"2020-11-25","BSTAR":"0.00041702000000","TLE_LINE1":"1 47152U 20088AG  23024.70058788  .00005936  00000-0  41702-3 0  9991","PERIAPSIS":"546.062","APOAPSIS":"548.350","CLASSIFICATION_TYPE":"U","REF_FRAME":"TEME","MEAN_MOTION_DOT":"0.00005936","TLE_LINE2":"2 47152  53.0568  19.2174 0001652  90.7283 269.3896 15.06402348120262","TIME_SYSTEM":"UTC","DECAY_DATE":null,"RCS_SIZE":"LARGE","OBJECT_ID":"2020-088AG"},{"NORAD_CAT_ID":"47153","MEAN_ANOMALY":"268.8590","SEMIMAJOR_AXIS":"6925.355","RA_OF_ASC_NODE":"24.4786","INCLINATION":"53.0551","ELEMENT_SET_NO":"999","GP_ID":"223640498","EPHEMERIS_TYPE":"0","OBJECT_TYPE":"PAYLOAD","CENTER_NAME":"EARTH","MEAN_MOTION_DDOT":"0.0000000000000","ARG_OF_PERICENTER":"91.2658","SITE":"AFETR","MEAN_ELEMENT_THEORY":"SGP4","PERIOD":"95.592","EPOCH":"2023-01-24T16:46:56.027712","FILE":"3760111","MEAN_MOTION_DOT":"0.00002818","TLE_LINE2":"2 47153  53.0551  24.4786 0002256  91.2658 268.8590 15.06397905120194","TIME_SYSTEM":"UTC","OBJECT_ID":"2020-088AH","DECAY_DATE":null,"RCS_SIZE":"LARGE","PERIAPSIS":"545.658","CLASSIFICATION_TYPE":"U","APOAPSIS":"548.782","REF_FRAME":"TEME","BSTAR":"0.00020806000000","TLE_LINE1":"1 47153U 20088AH  23024.69925958  .00002818  00000-0  20806-3 0  9990","COUNTRY_CODE":"US","ECCENTRICITY":"0.00022560","MEAN_MOTION":"15.06397905","OBJECT_NAME":"STARLINK-1867","LAUNCH_DATE":"2020-11-25","REV_AT_EPOCH":"12019"},{"FILE":"3760117","EPOCH":"2023-01-24T17:44:36.666528","ARG_OF_PERICENTER":"106.4504","PERIOD":"95.592","MEAN_ELEMENT_THEORY":"SGP4","SITE":"AFETR","OBJECT_TYPE":"PAYLOAD","MEAN_MOTION_DDOT":"0.0000000000000","CENTER_NAME":"EARTH","GP_ID":"223641065","EPHEMERIS_TYPE":"0","ELEMENT_SET_NO":"999","INCLINATION":"53.0553","RA_OF_ASC_NODE":"9.0487","SEMIMAJOR_AXIS":"6925.345","NORAD_CAT_ID":"47154","MEAN_ANOMALY":"253.6693","OBJECT_NAME":"STARLINK-1868","MEAN_MOTION":"15.06401244","ECCENTRICITY":"0.00018890","REV_AT_EPOCH":"12041","LAUNCH_DATE":"2020-11-25","COUNTRY_CODE":"US","TLE_LINE1":"1 47154U 20088AJ  23024.73931327  .00004827  00000-0  34272-3 0  9997","BSTAR":"0.00034272000000","APOAPSIS":"548.518","CLASSIFICATION_TYPE":"U","REF_FRAME":"TEME","PERIAPSIS":"545.902","TIME_SYSTEM":"UTC","DECAY_DATE":null,"RCS_SIZE":"LARGE","OBJECT_ID":"2020-088AJ","MEAN_MOTION_DOT":"0.00004827","TLE_LINE2":"2 47154  53.0553   9.0487 0001889 106.4504 253.6693 15.06401244120417"},{"COUNTRY_CODE":"US","REV_AT_EPOCH":"12008","LAUNCH_DATE":"2020-11-25","OBJECT_NAME":"STARLINK-1869","MEAN_MOTION":"15.06401019","ECCENTRICITY":"0.00022130","BSTAR":"0.00074381000000","TLE_LINE1":"1 47155U 20088AK  23024.44259766  .00010815  00000-0  74381-3 0  9995","PERIAPSIS":"545.678","REF_FRAME":"TEME","APOAPSIS":"548.743","CLASSIFICATION_TYPE":"U","TLE_LINE2":"2 47155  53.0534  30.3881 0002213  91.9899 268.1343 15.06401019120085","MEAN_MOTION_DOT":"0.00010815","RCS_SIZE":"LARGE","DECAY_DATE":null,"OBJECT_ID":"2020-088AK","TIME_SYSTEM":"UTC","EPOCH":"2023-01-24T10:37:20.437824","FILE":"3760117","MEAN_MOTION_DDOT":"0.0000000000000","CENTER_NAME":"EARTH","OBJECT_TYPE":"PAYLOAD","MEAN_ELEMENT_THEORY":"SGP4","PERIOD":"95.592","SITE":"AFETR","ARG_OF_PERICENTER":"91.9899","INCLINATION":"53.0534","EPHEMERIS_TYPE":"0","GP_ID":"223640562","ELEMENT_SET_NO":"999","NORAD_CAT_ID":"47155","MEAN_ANOMALY":"268.1343","SEMIMAJOR_AXIS":"6925.345","RA_OF_ASC_NODE":"30.3881"},{"COUNTRY_CODE":"US","MEAN_MOTION":"15.06402266","ECCENTRICITY":"0.00017000","OBJECT_NAME":"STARLINK-1871","LAUNCH_DATE":"2020-11-25","REV_AT_EPOCH":"12026","BSTAR":"0.00035738000000","TLE_LINE1":"1 47157U 20088AM  23024.67941679  .00005046  00000-0  35738-3 0  9996","PERIAPSIS":"546.029","CLASSIFICATION_TYPE":"U","APOAPSIS":"548.384","REF_FRAME":"TEME","MEAN_MOTION_DOT":"0.00005046","TLE_LINE2":"2 47157  53.0532  19.3321 0001700  97.3927 262.7255 15.06402266120260","TIME_SYSTEM":"UTC","OBJECT_ID":"2020-088AM","DECAY_DATE":null,"RCS_SIZE":"LARGE","EPOCH":"2023-01-24T16:18:21.610656","FILE":"3760143","OBJECT_TYPE":"PAYLOAD","CENTER_NAME":"EARTH","MEAN_MOTION_DDOT":"0.0000000000000","ARG_OF_PERICENTER":"97.3927","SITE":"AFETR","MEAN_ELEMENT_THEORY":"SGP4","PERIOD":"95.592","INCLINATION":"53.0532","ELEMENT_SET_NO":"999","GP_ID":"223640588","EPHEMERIS_TYPE":"0","MEAN_ANOMALY":"262.7255","NORAD_CAT_ID":"47157","RA_OF_ASC_NODE":"19.3321","SEMIMAJOR_AXIS":"6925.342"},{"MEAN_MOTION_DOT":"0.00008335","TLE_LINE2":"2 47158  53.0535  10.7146 0001729 103.0161 257.1021 15.06406769120351","TIME_SYSTEM":"UTC","DECAY_DATE":null,"RCS_SIZE":"LARGE","OBJECT_ID":"2020-088AN","PERIAPSIS":"545.995","APOAPSIS":"548.390","CLASSIFICATION_TYPE":"U","REF_FRAME":"TEME","BSTAR":"0.00057766000000","TLE_LINE1":"1 47158U 20088AN  23024.37071992  .00008335  00000-0  57766-3 0  9995","COUNTRY_CODE":"US","OBJECT_NAME":"STARLINK-1873","MEAN_MOTION":"15.06406769","ECCENTRICITY":"0.00017290","REV_AT_EPOCH":"12035","LAUNCH_DATE":"2020-11-25","NORAD_CAT_ID":"47158","MEAN_ANOMALY":"257.1021","SEMIMAJOR_AXIS":"6925.328","RA_OF_ASC_NODE":"10.7146","INCLINATION":"53.0535","EPHEMERIS_TYPE":"0","GP_ID":"223640604","ELEMENT_SET_NO":"999","OBJECT_TYPE":"PAYLOAD","MEAN_MOTION_DDOT":"0.0000000000000","CENTER_NAME":"EARTH","ARG_OF_PERICENTER":"103.0161","MEAN_ELEMENT_THEORY":"SGP4","PERIOD":"95.592","SITE":"AFETR","EPOCH":"2023-01-24T08:53:50.201088","FILE":"3760119"},{"FILE":"3760120","EPOCH":"2023-01-24T16:03:45.687456","SITE":"AFETR","MEAN_ELEMENT_THEORY":"SGP4","PERIOD":"95.592","ARG_OF_PERICENTER":"105.6571","CENTER_NAME":"EARTH","MEAN_MOTION_DDOT":"0.0000000000000","OBJECT_TYPE":"PAYLOAD","ELEMENT_SET_NO":"999","GP_ID":"223641114","EPHEMERIS_TYPE":"0","INCLINATION":"53.0538","RA_OF_ASC_NODE":"9.3764","SEMIMAJOR_AXIS":"6925.318","MEAN_ANOMALY":"254.4645","NORAD_CAT_ID":"47161","LAUNCH_DATE":"2020-11-25","REV_AT_EPOCH":"12040","ECCENTRICITY":"0.00020550","MEAN_MOTION":"15.06409854","OBJECT_NAME":"STARLINK-1876","COUNTRY_CODE":"US","TLE_LINE1":"1 47161U 20088AR  23024.66927879  .00009872  00000-0  68052-3 0  9992","BSTAR":"0.00068052000000","REF_FRAME":"TEME","CLASSIFICATION_TYPE":"U","APOAPSIS":"548.607","PERIAPSIS":"545.760","OBJECT_ID":"2020-088AR","DECAY_DATE":null,"RCS_SIZE":"LARGE","TIME_SYSTEM":"UTC","TLE_LINE2":"2 47161  53.0538   9.3764 0002055 105.6571 254.4645 15.06409854120400","MEAN_MOTION_DOT":"0.00009872"},{"TLE_LINE1":"1 47162U 20088AS  23024.20024528  .00012270  00000-0  84103-3 0  9993","BSTAR":"0.00084103000000","OBJECT_NAME":"STARLINK-1877","ECCENTRICITY":"0.00015410","MEAN_MOTION":"15.06407986","REV_AT_EPOCH":"12019","LAUNCH_DATE":"2020-11-25","COUNTRY_CODE":"US","TIME_SYSTEM":"UTC","RCS_SIZE":"LARGE","DECAY_DATE":null,"OBJECT_ID":"2020-088AS","MEAN_MOTION_DOT":"0.00012270","TLE_LINE2":"2 47162  53.0521  21.4815 0001541  88.4370 271.6795 15.06407986120196","APOAPSIS":"548.256","CLASSIFICATION_TYPE":"U","REF_FRAME":"TEME","PERIAPSIS":"546.122","ARG_OF_PERICENTER":"88.4370","MEAN_ELEMENT_THEORY":"SGP4","PERIOD":"95.592","SITE":"AFETR","OBJECT_TYPE":"PAYLOAD","MEAN_MOTION_DDOT":"0.0000000000000","CENTER_NAME":"EARTH","FILE":"3759500","EPOCH":"2023-01-24T04:48:21.192192","RA_OF_ASC_NODE":"21.4815","SEMIMAJOR_AXIS":"6925.324","NORAD_CAT_ID":"47162","MEAN_ANOMALY":"271.6795","GP_ID":"223627884","EPHEMERIS_TYPE":"0","ELEMENT_SET_NO":"999","INCLINATION":"53.0521"},{"INCLINATION":"53.0536","GP_ID":"223640609","EPHEMERIS_TYPE":"0","ELEMENT_SET_NO":"999","NORAD_CAT_ID":"47163","MEAN_ANOMALY":"278.2360","SEMIMAJOR_AXIS":"6925.352","RA_OF_ASC_NODE":"29.2542","EPOCH":"2023-01-24T16:43:34.573152","FILE":"3760120","MEAN_MOTION_DDOT":"0.0000000000000","CENTER_NAME":"EARTH","OBJECT_TYPE":"PAYLOAD","PERIOD":"95.592","MEAN_ELEMENT_THEORY":"SGP4","SITE":"AFETR","ARG_OF_PERICENTER":"81.8899","PERIAPSIS":"545.569","REF_FRAME":"TEME","APOAPSIS":"548.866","CLASSIFICATION_TYPE":"U","TLE_LINE2":"2 47163  53.0536  29.2542 0002380  81.8899 278.2360 15.06398744120126","MEAN_MOTION_DOT":"0.00005642","DECAY_DATE":null,"RCS_SIZE":"LARGE","OBJECT_ID":"2020-088AT","TIME_SYSTEM":"UTC","COUNTRY_CODE":"US","REV_AT_EPOCH":"12012","LAUNCH_DATE":"2020-11-25","OBJECT_NAME":"STARLINK-1878","ECCENTRICITY":"0.00023800","MEAN_MOTION":"15.06398744","BSTAR":"0.00039736000000","TLE_LINE1":"1 47163U 20088AT  23024.69692793  .00005642  00000-0  39736-3 0  9999"},{"MEAN_MOTION_DOT":"0.00015666","TLE_LINE2":"2 47164  53.0565 359.5969 0001561  79.6080 280.5085 15.06409166120534","TIME_SYSTEM":"UTC","OBJECT_ID":"2020-088AU","RCS_SIZE":"LARGE","DECAY_DATE":null,"PERIAPSIS":"546.104","CLASSIFICATION_TYPE":"U","APOAPSIS":"548.267","REF_FRAME":"TEME","BSTAR":"0.00106800000000","TLE_LINE1":"1 47164U 20088AU  23024.61859888  .00015666  00000-0  10680-2 0  9995","COUNTRY_CODE":"US","MEAN_MOTION":"15.06409166","ECCENTRICITY":"0.00015610","OBJECT_NAME":"STARLINK-1879","LAUNCH_DATE":"2020-11-25","REV_AT_EPOCH":"12053","NORAD_CAT_ID":"47164","MEAN_ANOMALY":"280.5085","SEMIMAJOR_AXIS":"6925.320","RA_OF_ASC_NODE":"359.5969","INCLINATION":"53.0565","ELEMENT_SET_NO":"999","EPHEMERIS_TYPE":"0","GP_ID":"223640613","OBJECT_TYPE":"PAYLOAD","CENTER_NAME":"EARTH","MEAN_MOTION_DDOT":"0.0000000000000","ARG_OF_PERICENTER":"79.6080","SITE":"AFETR","PERIOD":"95.592","MEAN_ELEMENT_THEORY":"SGP4","EPOCH":"2023-01-24T14:50:46.943232","FILE":"3760120"}];
